GLOBALSTAR M001 [-]     
1 25162U 98008A   23285.35342882 -.00000057  00000+0  30128-3 0  9995
2 25162  52.0043 319.7709 0001727  45.3622 327.4690 12.38168471167676
GLOBALSTAR M004 [-]     
1 25163U 98008B   23285.61210750 -.00000028  00000+0  41746-3 0  9999
2 25163  51.9971 125.9433 0003393  23.4934  15.6134 12.63340194184131
GLOBALSTAR M002 [-]     
1 25164U 98008C   23285.31456561 -.00000041  00000+0  70202-3 0  9993
2 25164  52.0042 339.3701 0001640 101.9912 258.1091 11.61495798112734
GLOBALSTAR M003 [-]     
1 25165U 98008D   23285.64070644  .00000028  00000+0  12546-2 0  9994
2 25165  51.9761  67.9179 0008563 136.2364 309.0004 12.11943668158827
GLOBALSTAR M014 [-]     
1 25306U 98023A   23285.41366573 -.00000056  00000+0  40686-3 0  9991
2 25306  51.9826 275.2457 0000910 334.8914 178.0051 11.65460903119607
GLOBALSTAR M006 [-]     
1 25307U 98023B   23285.30909458 -.00000043  00000+0  67930-3 0  9992
2 25307  51.9940 305.0418 0003730  85.2586 287.4275 11.58154565145708
GLOBALSTAR M015 [-]     
1 25308U 98023C   23285.56017463  .00000025  00000+0  22521-2 0  9992
2 25308  51.9858  14.7702 0012854  67.4265 305.8402 11.48852985123556
GLOBALSTAR M008 [-]     
1 25309U 98023D   23285.49585683 -.00000076  00000+0  15800-3 0  9999
2 25309  51.9956 177.2385 0002468 340.3107 191.8648 12.36029386161956
